start=new Date('2021-11-04T00:00:00.000Z').valueOf();
sats=[{"EPOCH":"2021-11-03T19:23:39.646464","ELEMENT_SET_NO":"999","INCLINATION":"53.0555","OBJECT_TYPE":"PAYLOAD","SEMIMAJOR_AXIS":"6925.343","REF_FRAME":"TEME","MEAN_MOTION_DOT":"0.00000518","REV_AT_EPOCH":"3323","LAUNCH_DATE":"2021-04-07","MEAN_ANOMALY":"268.5234","ECCENTRICITY":"0.00017080","PERIAPSIS":"546.025","MEAN_MOTION_DDOT":"0.0000000000000","TIME_SYSTEM":"UTC","APOAPSIS":"548.390","TLE_LINE1":"1 48099U 21027H   21307.80809776  .00000518  00000-0  53679-4 0  9998","RA_OF_ASC_NODE":"95.3944","TLE_LINE2":"2 48099  53.0555  95.3944 0001708  91.5950 268.5234 15.06401939 33233","RCS_SIZE":"LARGE","GP_ID":"188858706","SITE":"AFETR","EPHEMERIS_TYPE":"0","PERIOD":"95.592","MEAN_MOTION":"15.06401939","FILE":"3200165","OBJECT_NAME":"STARLINK-2428","DECAY_DATE":null,"CLASSIFICATION_TYPE":"U","OBJECT_ID":"2021-027H","ARG_OF_PERICENTER":"91.5950","BSTAR":"0.00005367900000","NORAD_CAT_ID":"48099","COUNTRY_CODE":"US","CENTER_NAME":"EARTH","MEAN_ELEMENT_THEORY":"SGP4"},{"TIME_SYSTEM":"UTC","SITE":"AFETR","GP_ID":"188858956","TLE_LINE2":"2 48100  53.0557  75.2863 0001466  84.0114 276.1042 15.06404378 33529","RCS_SIZE":"LARGE","EPHEMERIS_TYPE":"0","PERIOD":"95.592","APOAPSIS":"548.215","TLE_LINE1":"1 48100U 21027J   21307.83575105  .00001976  00000-0  15148-3 0  9997","RA_OF_ASC_NODE":"75.2863","OBJECT_NAME":"STARLINK-2430","DECAY_DATE":null,"OBJECT_ID":"2021-027J","CLASSIFICATION_TYPE":"U","MEAN_MOTION":"15.06404378","FILE":"3200165","COUNTRY_CODE":"US","MEAN_ELEMENT_THEORY":"SGP4","CENTER_NAME":"EARTH","NORAD_CAT_ID":"48100","ARG_OF_PERICENTER":"84.0114","BSTAR":"0.00015148000000","OBJECT_TYPE":"PAYLOAD","SEMIMAJOR_AXIS":"6925.335","INCLINATION":"53.0557","EPOCH":"2021-11-03T20:03:28.890720","ELEMENT_SET_NO":"999","REV_AT_EPOCH":"3352","MEAN_MOTION_DOT":"0.00001976","REF_FRAME":"TEME","ECCENTRICITY":"0.00014660","LAUNCH_DATE":"2021-04-07","MEAN_ANOMALY":"276.1042","PERIAPSIS":"546.185","MEAN_MOTION_DDOT":"0.0000000000000"},{"FILE":"3200165","MEAN_MOTION":"15.06390633","OBJECT_NAME":"STARLINK-2436","DECAY_DATE":null,"CLASSIFICATION_TYPE":"U","OBJECT_ID":"2021-027K","NORAD_CAT_ID":"48101","BSTAR":"-0.00006238900000","ARG_OF_PERICENTER":"76.8948","COUNTRY_CODE":"US","MEAN_ELEMENT_THEORY":"SGP4","CENTER_NAME":"EARTH","TIME_SYSTEM":"UTC","TLE_LINE1":"1 48101U 21027K   21307.68644124 -.00001210  00000-0 -62389-4 0  9992","APOAPSIS":"548.384","RA_OF_ASC_NODE":"85.9559","SITE":"AFETR","GP_ID":"188859207","RCS_SIZE":"LARGE","TLE_LINE2":"2 48101  53.0557  85.9559 0001648  76.8948 283.2225 15.06390633 33368","PERIOD":"95.593","EPHEMERIS_TYPE":"0","LAUNCH_DATE":"2021-04-07","MEAN_ANOMALY":"283.2225","ECCENTRICITY":"0.00016480","PERIAPSIS":"546.101","MEAN_MOTION_DDOT":"0.0000000000000","EPOCH":"2021-11-03T16:28:28.523136","ELEMENT_SET_NO":"999","SEMIMAJOR_AXIS":"6925.377","OBJECT_TYPE":"PAYLOAD","INCLINATION":"53.0557","MEAN_MOTION_DOT":"-0.00001210","REF_FRAME":"TEME","REV_AT_EPOCH":"3336"},{"TIME_SYSTEM":"UTC","RA_OF_ASC_NODE":"75.4675","TLE_LINE1":"1 48102U 21027L   21307.79519856 -.00001022  00000-0 -49740-4 0  9995","APOAPSIS":"548.239","EPHEMERIS_TYPE":"0","PERIOD":"95.593","GP_ID":"188859458","SITE":"AFETR","TLE_LINE2":"2 48102  53.0524  75.4675 0001438  87.2652 272.8502 15.06390390 33510","RCS_SIZE":"LARGE","MEAN_MOTION":"15.06390390","FILE":"3200165","CLASSIFICATION_TYPE":"U","OBJECT_ID":"2021-027L","DECAY_DATE":null,"OBJECT_NAME":"STARLINK-2437","NORAD_CAT_ID":"48102","BSTAR":"-0.00004974000000","ARG_OF_PERICENTER":"87.2652","MEAN_ELEMENT_THEORY":"SGP4","COUNTRY_CODE":"US","CENTER_NAME":"EARTH","ELEMENT_SET_NO":"999","EPOCH":"2021-11-03T19:05:05.155584","SEMIMAJOR_AXIS":"6925.378","OBJECT_TYPE":"PAYLOAD","INCLINATION":"53.0524","REF_FRAME":"TEME","MEAN_MOTION_DOT":"-0.00001022","REV_AT_EPOCH":"3351","MEAN_ANOMALY":"272.8502","LAUNCH_DATE":"2021-04-07","ECCENTRICITY":"0.00014380","MEAN_MOTION_DDOT":"0.0000000000000","PERIAPSIS":"546.247"},{"TIME_SYSTEM":"UTC","TLE_LINE2":"2 48103  53.0515  75.4368 0001348  70.1811 289.9323 15.06402120 33513","RCS_SIZE":"MEDIUM","GP_ID":"188858206","SITE":"AFETR","EPHEMERIS_TYPE":"0","PERIOD":"95.592","APOAPSIS":"548.141","TLE_LINE1":"1 48103U 21027M   21307.80256117  .00001014  00000-0  86937-4 0  9994","RA_OF_ASC_NODE":"75.4368","OBJECT_NAME":"STARLINK-2438","DECAY_DATE":null,"CLASSIFICATION_TYPE":"U","OBJECT_ID":"2021-027M","MEAN_MOTION":"15.06402120","FILE":"3200165","CENTER_NAME":"EARTH","COUNTRY_CODE":"US","MEAN_ELEMENT_THEORY":"SGP4","ARG_OF_PERICENTER":"70.1811","BSTAR":"0.00008693700000","NORAD_CAT_ID":"48103","INCLINATION":"53.0515","OBJECT_TYPE":"PAYLOAD","SEMIMAJOR_AXIS":"6925.342","EPOCH":"2021-11-03T19:15:41.285088","ELEMENT_SET_NO":"999","REV_AT_EPOCH":"3351","REF_FRAME":"TEME","MEAN_MOTION_DOT":"0.00001014","ECCENTRICITY":"0.00013480","LAUNCH_DATE":"2021-04-07","MEAN_ANOMALY":"289.9323","PERIAPSIS":"546.274","MEAN_MOTION_DDOT":"0.0000000000000"},{"TIME_SYSTEM":"UTC","TLE_LINE1":"1 48104U 21027N   21307.41693150  .00002497  00000-0  18650-3 0  9996","APOAPSIS":"548.497","RA_OF_ASC_NODE":"82.1619","TLE_LINE2":"2 48104  53.0567  82.1619 0001848  79.0101 281.1096 15.06398722 33399","RCS_SIZE":"LARGE","SITE":"AFETR","GP_ID":"188828704","EPHEMERIS_TYPE":"0","PERIOD":"95.592","MEAN_MOTION":"15.06398722","FILE":"3199758","DECAY_DATE":null,"OBJECT_NAME":"STARLINK-2439","CLASSIFICATION_TYPE":"U","OBJECT_ID":"2021-027N","ARG_OF_PERICENTER":"79.0101","BSTAR":"0.00018650000000","NORAD_CAT_ID":"48104","MEAN_ELEMENT_THEORY":"SGP4","COUNTRY_CODE":"US","CENTER_NAME":"EARTH","EPOCH":"2021-11-03T10:00:22.881600","ELEMENT_SET_NO":"999","INCLINATION":"53.0567","SEMIMAJOR_AXIS":"6925.352","OBJECT_TYPE":"PAYLOAD","REF_FRAME":"TEME","MEAN_MOTION_DOT":"0.00002497","REV_AT_EPOCH":"3339","LAUNCH_DATE":"2021-04-07","MEAN_ANOMALY":"281.1096","ECCENTRICITY":"0.00018480","PERIAPSIS":"545.938","MEAN_MOTION_DDOT":"0.0000000000000"},{"MEAN_MOTION_DDOT":"0.0000000000000","PERIAPSIS":"546.346","ECCENTRICITY":"0.00012460","MEAN_ANOMALY":"282.0133","LAUNCH_DATE":"2021-04-07","REV_AT_EPOCH":"3422","REF_FRAME":"TEME","MEAN_MOTION_DOT":"0.00000464","SEMIMAJOR_AXIS":"6925.343","OBJECT_TYPE":"PAYLOAD","INCLINATION":"53.0535","ELEMENT_SET_NO":"999","EPOCH":"2021-11-03T20:31:19.950528","COUNTRY_CODE":"US","CENTER_NAME":"EARTH","MEAN_ELEMENT_THEORY":"SGP4","NORAD_CAT_ID":"48105","ARG_OF_PERICENTER":"78.0995","BSTAR":"0.00005002800000","OBJECT_ID":"2021-027P","CLASSIFICATION_TYPE":"U","OBJECT_NAME":"STARLINK-2440","DECAY_DATE":null,"MEAN_MOTION":"15.06401675","FILE":"3200165","PERIOD":"95.592","EPHEMERIS_TYPE":"0","SITE":"AFETR","GP_ID":"188859708","TLE_LINE2":"2 48105  53.0535  25.1817 0001246  78.0995 282.0133 15.06401675 34221","RCS_SIZE":"LARGE","RA_OF_ASC_NODE":"25.1817","APOAPSIS":"548.071","TLE_LINE1":"1 48105U 21027P   21307.85509202  .00000464  00000-0  50028-4 0  9997","TIME_SYSTEM":"UTC"},{"TIME_SYSTEM":"UTC","GP_ID":"188834337","SITE":"AFETR","RCS_SIZE":"LARGE","TLE_LINE2":"2 48106  53.0552  76.7475 0001482  85.2767 274.8392 15.06390129 33071","PERIOD":"95.593","EPHEMERIS_TYPE":"0","TLE_LINE1":"1 48106U 21027Q   21307.50674837 -.00000959  00000-0 -45477-4 0  9990","APOAPSIS":"548.270","RA_OF_ASC_NODE":"76.7475","DECAY_DATE":null,"OBJECT_NAME":"STARLINK-2442","CLASSIFICATION_TYPE":"U","OBJECT_ID":"2021-027Q","FILE":"3200034","MEAN_MOTION":"15.06390129","COUNTRY_CODE":"US","CENTER_NAME":"EARTH","MEAN_ELEMENT_THEORY":"SGP4","NORAD_CAT_ID":"48106","BSTAR":"-0.00004547700000","ARG_OF_PERICENTER":"85.2767","OBJECT_TYPE":"PAYLOAD","SEMIMAJOR_AXIS":"6925.379","INCLINATION":"53.0552","EPOCH":"2021-11-03T12:09:43.059168","ELEMENT_SET_NO":"999","REV_AT_EPOCH":"3307","MEAN_MOTION_DOT":"-0.00000959","REF_FRAME":"TEME","ECCENTRICITY":"0.00014820","LAUNCH_DATE":"2021-04-07","MEAN_ANOMALY":"274.8392","PERIAPSIS":"546.217","MEAN_MOTION_DDOT":"0.0000000000000"},{"LAUNCH_DATE":"2021-04-07","MEAN_ANOMALY":"273.0425","ECCENTRICITY":"0.00015860","PERIAPSIS":"546.123","MEAN_MOTION_DDOT":"0.0000000000000","EPOCH":"2021-11-03T15:43:23.121408","ELEMENT_SET_NO":"999","OBJECT_TYPE":"PAYLOAD","SEMIMAJOR_AXIS":"6925.356","INCLINATION":"53.0550","REF_FRAME":"TEME","MEAN_MOTION_DOT":"0.00000693","REV_AT_EPOCH":"3349","FILE":"3200165","MEAN_MOTION":"15.06397429","OBJECT_NAME":"STARLINK-2443","DECAY_DATE":null,"OBJECT_ID":"2021-027R","CLASSIFICATION_TYPE":"U","NORAD_CAT_ID":"48107","ARG_OF_PERICENTER":"87.0745","BSTAR":"0.00006539100000","CENTER_NAME":"EARTH","COUNTRY_CODE":"US","MEAN_ELEMENT_THEORY":"SGP4","TIME_SYSTEM":"UTC","APOAPSIS":"548.320","TLE_LINE1":"1 48107U 21027R   21307.65512872  .00000693  00000-0  65391-4 0  9997","RA_OF_ASC_NODE":"76.0808","GP_ID":"188858707","SITE":"AFETR","TLE_LINE2":"2 48107  53.0550  76.0808 0001586  87.0745 273.0425 15.06397429 33498","RCS_SIZE":"LARGE","PERIOD":"95.592","EPHEMERIS_TYPE":"0"},{"REF_FRAME":"TEME","MEAN_MOTION_DOT":"0.00000669","REV_AT_EPOCH":"3337","EPOCH":"2021-11-03T19:51:31.933152","ELEMENT_SET_NO":"999","SEMIMAJOR_AXIS":"6925.378","OBJECT_TYPE":"PAYLOAD","INCLINATION":"53.0567","PERIAPSIS":"546.228","MEAN_MOTION_DDOT":"0.0000000000000","LAUNCH_DATE":"2021-04-07","MEAN_ANOMALY":"277.1920","ECCENTRICITY":"0.00014650","APOAPSIS":"548.257","TLE_LINE1":"1 48108U 21027S   21307.82745293  .00000669  00000-0  63792-4 0  9998","RA_OF_ASC_NODE":"85.3239","GP_ID":"188858957","SITE":"AFETR","RCS_SIZE":"LARGE","TLE_LINE2":"2 48108  53.0567  85.3239 0001465  82.9235 277.1920 15.06390435 33374","PERIOD":"95.593","EPHEMERIS_TYPE":"0","TIME_SYSTEM":"UTC","NORAD_CAT_ID":"48108","ARG_OF_PERICENTER":"82.9235","BSTAR":"0.00006379200000","COUNTRY_CODE":"US","MEAN_ELEMENT_THEORY":"SGP4","CENTER_NAME":"EARTH","FILE":"3200165","MEAN_MOTION":"15.06390435","DECAY_DATE":null,"OBJECT_NAME":"STARLINK-2444","OBJECT_ID":"2021-027S","CLASSIFICATION_TYPE":"U"}];
